CCSDS_OMM_VERS,COMMENT,CREATION_DATE,ORIGINATOR,OBJECT_NAME,OBJECT_ID,CENTER_NAME,REF_FRAME,TIME_SYSTEM,MEAN_ELEMENT_THEORY,EPOCH,MEAN_MOTION,ECCENTRICITY,INCLINATION,RA_OF_ASC_NODE,ARG_OF_PERICENTER,MEAN_ANOMALY,EPHEMERIS_TYPE,CLASSIFICATION_TYPE,NORAD_CAT_ID,ELEMENT_SET_NO,REV_AT_EPOCH,BSTAR,MEAN_MOTION_DOT,MEAN_MOTION_DDOT,SEMIMAJOR_AXIS,PERIOD,APOAPSIS,PERIAPSIS,OBJECT_TYPE,RCS_SIZE,COUNTRY_CODE,LAUNCH_DATE,SITE,DECAY_DATE,FILE,GP_ID,TLE_LINE0,TLE_LINE1,TLE_LINE2
3.0,GENERATED VIA SPACE-TRACK.ORG API,2005-05-02T23:37:16,18 SPCS,ARIANE 1 DEB,1986-019JE,EARTH,TEME,UTC,SGP4,1988-10-07T12:32:16.915200,15.34875141,0.0042801,98.7568,23.974,331.9518,30.3495,0,U,17550,999,9761,0.1956,0.06815627,0.0,6839.432,93.818,490.571,432.024,DEBRIS,,,,,1988-10-09,130984,43167072,0 ARIANE 1 DEB,1 17550U 86019 JE 88281.52241800  .06815627 +00000-0 +0195601 0  9997,2 17550 098.7568 023.9740 0042801 331.9518 030.3495 15.34875141097619
3.0,GENERATED VIA SPACE-TRACK.ORG API,2023-02-18T10:26:14,18 SPCS,CZ-2D R/B,2020-014D,EARTH,TEME,UTC,SGP4,2023-02-18T06:34:44.614272,16.36437541,0.0002768,34.9829,236.4715,273.7165,269.5459,0,U,45252,999,16858,0.0011233,0.10576135,1.3607e-06,6553.433,87.996,177.112,173.484,ROCKET BODY,LARGE,PRC,2020-02-19,XSC,2023-02-18,3805527,225865014,0 CZ-2D R/B,1 45252U 20014D   23049.27412748  .10576135  13607-5  11233-2 0  9990,2 45252  34.9829 236.4715 0002768 273.7165 269.5459 16.36437541168585
3.0,GENERATED VIA SPACE-TRACK.ORG API,2006-10-12T09:27:51,18 SPCS,M-5 DEB,2006-041C,EARTH,TEME,UTC,SGP4,2006-10-10T23:44:35.536415,16.08078647,0.0065088,98.2696,294.9887,71.1382,290.9258,0,U,29481,999,267,0.012339,0.13804051,3.0837e-06,6630.26,89.547,295.28,208.97,DEBRIS,SMALL,JPN,2006-09-22,KSCUT,2006-10-11,317774,59069939,0 M-5 DEB,1 29481U 06041C   06283.98930019  .13804051  30837-5  12339-1 0  9990,2 29481 098.2696 294.9887 0065088 071.1382 290.9258 16.08078647  2679
3.0,GENERATED VIA SPACE-TRACK.ORG API,2022-11-26T15:26:13,18 SPCS,COSMOS 1408 DEB,1982-092AQP,EARTH,TEME,UTC,SGP4,2022-11-26T09:42:07.233696,16.11220143,0.0012389,82.6691,105.283,299.1497,60.8547,0,U,50715,999,5234,0.0027862,0.02480615,0.007851,6621.635,89.373,251.704,235.297,DEBRIS,SMALL,CIS,1982-09-16,PKMTR,2022-11-29,3670745,218837243,0 COSMOS 1408 DEB,1 50715U 82092AQP 22330.40425039  .02480615  78510-2  27862-2 0  9992,2 50715  82.6691 105.2830 0012389 299.1497  60.8547 16.11220143 52340
3.0,GENERATED VIA SPACE-TRACK.ORG API,2023-01-15T13:06:12,18 SPCS,FLOCK 3P 4,2017-008T,EARTH,TEME,UTC,SGP4,2023-01-15T03:25:44.867424,16.34947824,0.0004538,97.2579,89.141,238.7011,131.2955,0,U,41965,999,32987,0.0016172,0.11389157,2.5098e-06,6557.414,88.076,182.254,176.303,PAYLOAD,SMALL,US,2017-02-15,SRI,2023-01-15,3746010,223042932,0 FLOCK 3P 4,1 41965U 17008T   23015.14288041  .11389157  25098-5  16172-2 0  9993,2 41965  97.2579  89.1410 0004538 238.7011 131.2955 16.34947824329874
3.0,GENERATED VIA SPACE-TRACK.ORG API,2004-08-17T15:28:30,18 SPCS,THORAD AGENA D DEB,1969-082KS,EARTH,TEME,UTC,SGP4,2001-04-14T21:06:25.876224,16.07284597,0.0015119,70.41,287.8771,281.7115,87.2395,0,U,15553,999,85277,0.022336,0.10339131,0.45759,6632.444,89.592,264.336,244.281,DEBRIS,SMALL,US,1969-09-30,AFWTR,2001-04-15,35619,36492946,0 THORAD AGENA D DEB,1 15553U 69082KS  01104.87946616 +.10339131 +45759-0 +22336-1 0  9995,2 15553 070.4100 287.8771 0015119 281.7115 087.2395 16.07284597852777
3.0,GENERATED VIA SPACE-TRACK.ORG API,2004-08-15T23:39:05,18 SPCS,COSMOS 616,1973-102A,EARTH,TEME,UTC,SGP4,1973-12-27T23:24:32.404320,16.04118919,0.008996,72.8609,244.1715,40.0573,320.7196,0,U,6979,999,168,0.0,0.00097888,3.402e-07,6641.167,89.768,322.776,203.288,PAYLOAD,,,,,1973-12-28,33980,9132071,0 COSMOS 616,1 06979U 73102  A 73361.97537505  .00097888 +03402-5 +00000-0 0  9999,2 06979 072.8609 244.1715 0089960 040.0573 320.7196 16.04118919001683
3.0,GENERATED VIA SPACE-TRACK.ORG API,2004-08-17T15:14:54,18 SPCS,ARIANE 44L R/B,1992-010C,EARTH,TEME,UTC,SGP4,1998-05-04T03:33:20.561759,13.11875282,0.1379891,6.5413,336.8349,116.411,42.6968,0,U,21895,999,8687,-0.00040505,-0.00308692,-1.7404e-05,7594.055,109.766,2263.817,168.023,ROCKET BODY,LARGE,FR,1992-02-26,FRGUI,1998-05-14,35347,27551085,0 ARIANE 44L R/B,1 21895U 92010C   98124.14815465 -.00308692 -17404-4 -40505-3 0  9993,2 21895 006.5413 336.8349 1379891 116.4110 042.6968 13.11875282 86876
3.0,GENERATED VIA SPACE-TRACK.ORG API,2004-08-15T23:40:50,18 SPCS,COSMOS 953,1977-089A,EARTH,TEME,UTC,SGP4,1977-09-28T08:54:02.494079,16.10906982,0.013927,62.8063,115.883,79.1231,282.928,0,U,10359,999,190,0.0,0.00491259,0.0,6622.497,89.39,336.594,152.131,PAYLOAD,,,,,1977-09-29,34015,10115459,0 COSMOS 953,1 10359U 77089  A 77271.37086220  .00491259 +00000-0 +00000-0 0  9991,2 10359 062.8063 115.8830 0139270 079.1231 282.9280 16.10906982001909
3.0,GENERATED VIA SPACE-TRACK.ORG API,2004-08-15T23:39:26,18 SPCS,SL-8 DEB,1965-020DY,EARTH,TEME,UTC,SGP4,1975-12-14T18:59:34.030175,15.81079509,0.0023247,55.9903,244.5873,35.0874,325.1667,0,U,1598,999,55374,0.0,0.00777915,0.0,6705.527,91.077,342.981,311.804,DEBRIS,,,,,1976-04-12,33987,9363341,0 SL-8 DEB,1 01598U 65020 DY 75348.79136609  .00777915 +00000-0 +00000-0 0  9990,2 01598 055.9903 244.5873 0023247 035.0874 325.1667 15.81079509553743
3.0,GENERATED VIA SPACE-TRACK.ORG API,2022-12-19T17:30:06,18 SPCS,H-2A DEB,2012-025W,EARTH,TEME,UTC,SGP4,2022-12-19T05:57:07.341696,14.89381308,0.0072344,98.2285,95.6937,218.3884,141.2172,0,U,54714,999,420,0.086911,0.00934988,0.0,6978.004,96.684,650.351,549.388,DEBRIS,SMALL,JPN,2012-05-17,TNSTA,2023-01-02,3711365,220938330,0 H-2A DEB,1 54714U 12025W   22353.24800164  .00934988  00000-0  86911-1 0  9998,2 54714  98.2285  95.6937 0072344 218.3884 141.2172 14.89381308  4209
3.0,GENERATED VIA SPACE-TRACK.ORG API,2004-08-15T23:38:47,18 SPCS,COSMOS 420 DEB,1971-043C,EARTH,TEME,UTC,SGP4,1971-06-02T20:31:02.154720,16.42678261,4.9e-06,51.7514,280.6499,79.3499,280.7488,0,U,5250,999,252,0.0,0.06059545,0.0,6536.828,87.661,158.725,158.661,DEBRIS,,,,,1971-06-03,33974,9028834,0 COSMOS 420 DEB,1 05250U 71043  C 71153.85488605  .06059545 +00000-0 +00000-0 0  9992,2 05250 051.7514 280.6499 0000049 079.3499 280.7488 16.42678261002528
3.0,GENERATED VIA SPACE-TRACK.ORG API,2019-04-03T04:44:41,18 SPCS,BREEZE-M DEB,2012-044AQ,EARTH,TEME,UTC,SGP4,2012-11-30T10:12:12.917664,10.68608655,0.2379252,49.9193,357.0839,216.9692,142.3996,0,U,38907,999,457,0.012536,0.00533393,2.3217e-05,8706.749,134.754,4400.169,257.059,DEBRIS,SMALL,CIS,2012-08-06,TTMTR,2013-11-20,2436542,128279966,0 BREEZE-M DEB,1 38907U 12044AQ  12335.42514951 +.00533393 +23217-4 +12536-1 0  9996,2 38907 049.9193 357.0839 2379252 216.9692 142.3996 10.68608655004579
3.0,GENERATED VIA SPACE-TRACK.ORG API,2004-08-15T23:39:17,18 SPCS,SL-4 R/B,1974-078B,EARTH,TEME,UTC,SGP4,1974-10-23T15:07:48.883296,16.3152243,0.0055696,62.7981,183.0799,69.6471,291.0613,0,U,7474,999,81,0.00076246,0.17564246,0.29834,6566.592,88.261,225.031,151.884,ROCKET BODY,,,,,1974-10-24,33984,9314051,0 SL-4 R/B,1 07474U 74078  B 74296.63042689  .17564246 +29834-0 +76246-3 0  9993,2 07474 062.7981 183.0799 0055696 069.6471 291.0613 16.31522430000816
3.0,GENERATED VIA SPACE-TRACK.ORG API,2004-08-17T14:42:24,18 SPCS,SOLWIND DEB,1979-017JL,EARTH,TEME,UTC,SGP4,1989-03-28T00:09:16.898975,16.33488615,0.0010586,97.9903,96.7178,187.9444,175.7183,0,U,17101,999,19221,0.0027283,0.16871344,9.5826e-06,6561.322,88.154,190.133,176.241,DEBRIS,,,,,1989-03-28,34697,16913873,0 SOLWIND DEB,1 17101U 79017 JL 89087.00644559  .16871344 +95826-5 +27283-2 0  9992,2 17101 097.9903 096.7178 0010586 187.9444 175.7183 16.33488615192216
3.0,GENERATED VIA SPACE-TRACK.ORG API,2008-03-26T10:33:06,18 SPCS,USA 193 DEB,2006-057BX,EARTH,TEME,UTC,SGP4,2008-03-16T10:51:41.067360,16.24140485,0.006562,59.3753,292.7539,47.5048,327.6971,0,U,32600,999,305,0.004074,0.19559248,1.1037e-05,6586.475,88.662,251.56,165.119,DEBRIS,SMALL,US,2006-12-14,AFWTR,2008-03-16,530643,65623353,0 USA 193 DEB,1 32600U 06057BX  08076.45255865  .19559248  11037-4  40740-2 0  9996,2 32600 059.3753 292.7539 0065620 047.5048 327.6971 16.24140485  3057
3.0,GENERATED VIA SPACE-TRACK.ORG API,2004-08-16T23:12:32,18 SPCS,SL-6 DEB,1980-002E,EARTH,TEME,UTC,SGP4,1980-01-17T04:07:50.501856,16.01877311,0.0120258,62.8192,225.5066,124.1436,237.9928,0,U,11666,999,89,0.00024108,0.02651584,3.4528e-05,6647.361,89.894,349.166,189.286,DEBRIS,,,,,1980-01-21,34277,11603401,0 SL-6 DEB,1 11666U 80002  E 80017.17211229  .02651584 +34528-4 +24108-3 0  9996,2 11666 062.8192 225.5066 0120258 124.1436 237.9928 16.01877311000897
3.0,GENERATED VIA SPACE-TRACK.ORG API,2004-08-17T14:42:45,18 SPCS,COSMOS 2035 DEB,1989-060F,EARTH,TEME,UTC,SGP4,1989-08-22T00:04:15.154751,16.52640398,0.0010899,82.5516,128.7048,273.3505,85.983,0,U,20180,999,314,0.00010092,0.1339402,1.0415e-05,6510.532,87.133,139.493,125.302,DEBRIS,,,,,1989-08-22,34704,17086800,0 COSMOS 2035 DEB,1 20180U 89060  F 89234.00295318  .13394020 +10415-4 +10092-3 0  9990,2 20180 082.5516 128.7048 0010899 273.3505 085.9830 16.52640398003147
3.0,GENERATED VIA SPACE-TRACK.ORG API,2024-01-01T18:41:16,18 SPCS,OBJECT C,2023-199C,EARTH,TEME,UTC,SGP4,2023-12-31T23:20:33.294048,16.47866063,0.0034123,97.7103,122.4211,292.1136,67.6545,0,U,58588,999,234,0.00019343,0.19219423,2.9724e-06,6523.098,87.386,167.222,122.704,UNKNOWN,MEDIUM,PRC,2023-12-17,JSC,2024-01-03,4150923,246035165,0 OBJECT C,1 58588U 23199C   23365.97260757  .19219423  29724-5  19343-3 0  9993,2 58588  97.7103 122.4211 0034123 292.1136  67.6545 16.47866063  2342
3.0,GENERATED VIA SPACE-TRACK.ORG API,2009-04-08T04:09:54,18 SPCS,SOYUZ-TMA 13,2008-050A,EARTH,TEME,UTC,SGP4,2009-04-08T06:38:24.000287,15.72617111,0.0010044,51.6285,305.253,188.8712,162.3614,0,U,33399,999,2799,0.027917,0.04560826,0.0,6729.561,91.567,358.186,344.667,PAYLOAD,LARGE,CIS,2008-10-12,TTMTR,2009-04-08,697950,70675754,0 SOYUZ-TMA 13,1 33399U 08050A   09098.27666667  .04560826  00000-0  27917-1 0  9990,2 33399 051.6285 305.2530 0010044 188.8712 162.3614 15.72617111 27990
